[{"OBJECT_NAME":"STARLINK-36281","OBJECT_ID":"2026-018S","EPOCH":"2026-03-03T17:09:02.316960","MEAN_MOTION":15.75210317,"ECCENTRICITY":0.00010482,"INCLINATION":97.2849,"RA_OF_ASC_NODE":128.328,"ARG_OF_PERICENTER":88.9453,"MEAN_ANOMALY":271.1933,"EPHEMERIS_TYPE":0,"CLASSIFICATION_TYPE":"U","NORAD_CAT_ID":67605,"ELEMENT_SET_NO":999,"REV_AT_EPOCH":637,"BSTAR":0.0018049738,"MEAN_MOTION_DOT":0.00278302,"MEAN_MOTION_DDOT":0},{"OBJECT_NAME":"STARLINK-35843","OBJECT_ID":"2026-018T","EPOCH":"2026-03-03T22:42:55.487520","MEAN_MOTION":15.75352934,"ECCENTRICITY":0.0001209,"INCLINATION":97.2836,"RA_OF_ASC_NODE":128.4698,"ARG_OF_PERICENTER":112.5168,"MEAN_ANOMALY":247.6226,"EPHEMERIS_TYPE":0,"CLASSIFICATION_TYPE":"U","NORAD_CAT_ID":67606,"ELEMENT_SET_NO":999,"REV_AT_EPOCH":640,"BSTAR":0.0026653189,"MEAN_MOTION_DOT":0.00420604,"MEAN_MOTION_DDOT":0},{"OBJECT_NAME":"STARLINK-36351","OBJECT_ID":"2026-018U","EPOCH":"2026-03-03T17:48:40.616064","MEAN_MOTION":15.7524834,"ECCENTRICITY":0.00013462,"INCLINATION":97.2832,"RA_OF_ASC_NODE":128.2897,"ARG_OF_PERICENTER":65.0477,"MEAN_ANOMALY":295.0928,"EPHEMERIS_TYPE":0,"CLASSIFICATION_TYPE":"U","NORAD_CAT_ID":67607,"ELEMENT_SET_NO":999,"REV_AT_EPOCH":637,"BSTAR":0.0023904729,"MEAN_MOTION_DOT":0.00373414,"MEAN_MOTION_DDOT":0},{"OBJECT_NAME":"STARLINK-36411","OBJECT_ID":"2026-018V","EPOCH":"2026-03-03T17:14:07.423872","MEAN_MOTION":15.75214181,"ECCENTRICITY":0.00010418,"INCLINATION":97.2839,"RA_OF_ASC_NODE":128.3233,"ARG_OF_PERICENTER":82.9048,"MEAN_ANOMALY":277.2335,"EPHEMERIS_TYPE":0,"CLASSIFICATION_TYPE":"U","NORAD_CAT_ID":67608,"ELEMENT_SET_NO":999,"REV_AT_EPOCH":637,"BSTAR":0.0019151958,"MEAN_MOTION_DOT":0.00295974,"MEAN_MOTION_DDOT":0},{"OBJECT_NAME":"STARLINK-36312","OBJECT_ID":"2026-018W","EPOCH":"2026-03-03T17:45:37.797120","MEAN_MOTION":15.7522809,"ECCENTRICITY":0.00013445,"INCLINATION":97.2843,"RA_OF_ASC_NODE":128.2937,"ARG_OF_PERICENTER":79.3728,"MEAN_ANOMALY":280.7688,"EPHEMERIS_TYPE":0,"CLASSIFICATION_TYPE":"U","NORAD_CAT_ID":67609,"ELEMENT_SET_NO":999,"REV_AT_EPOCH":637,"BSTAR":0.0014418454,"MEAN_MOTION_DOT":0.00220951,"MEAN_MOTION_DDOT":0},{"OBJECT_NAME":"STARLINK-36387","OBJECT_ID":"2026-018X","EPOCH":"2026-03-03T18:00:02.000160","MEAN_MOTION":15.75188961,"ECCENTRICITY":0.00013739,"INCLINATION":97.2844,"RA_OF_ASC_NODE":128.391,"ARG_OF_PERICENTER":94.4509,"MEAN_ANOMALY":166.3462,"EPHEMERIS_TYPE":0,"CLASSIFICATION_TYPE":"U","NORAD_CAT_ID":67610,"ELEMENT_SET_NO":999,"REV_AT_EPOCH":607,"BSTAR":-0.0001899217,"MEAN_MOTION_DOT":-0.00028362,"MEAN_MOTION_DDOT":0},{"OBJECT_NAME":"STARLINK-36636","OBJECT_ID":"2026-018Y","EPOCH":"2026-03-03T15:50:17.924352","MEAN_MOTION":15.75311047,"ECCENTRICITY":0.00019381,"INCLINATION":97.286,"RA_OF_ASC_NODE":128.2454,"ARG_OF_PERICENTER":35.1391,"MEAN_ANOMALY":325.0001,"EPHEMERIS_TYPE":0,"CLASSIFICATION_TYPE":"U","NORAD_CAT_ID":67611,"ELEMENT_SET_NO":999,"REV_AT_EPOCH":636,"BSTAR":0.002609867,"MEAN_MOTION_DOT":0.00410605,"MEAN_MOTION_DDOT":0},{"OBJECT_NAME":"STARLINK-36407","OBJECT_ID":"2026-018Z","EPOCH":"2026-03-03T17:36:28.748448","MEAN_MOTION":15.75220127,"ECCENTRICITY":0.00010948,"INCLINATION":97.2839,"RA_OF_ASC_NODE":128.3019,"ARG_OF_PERICENTER":98.6538,"MEAN_ANOMALY":261.4851,"EPHEMERIS_TYPE":0,"CLASSIFICATION_TYPE":"U","NORAD_CAT_ID":67612,"ELEMENT_SET_NO":999,"REV_AT_EPOCH":642,"BSTAR":0.0019336883,"MEAN_MOTION_DOT":0.00299017,"MEAN_MOTION_DDOT":0},{"OBJECT_NAME":"STARLINK-36597","OBJECT_ID":"2026-018AA","EPOCH":"2026-03-03T17:02:56.916672","MEAN_MOTION":15.75217651,"ECCENTRICITY":0.00020318,"INCLINATION":97.2822,"RA_OF_ASC_NODE":128.3341,"ARG_OF_PERICENTER":60.1417,"MEAN_ANOMALY":300.005,"EPHEMERIS_TYPE":0,"CLASSIFICATION_TYPE":"U","NORAD_CAT_ID":67613,"ELEMENT_SET_NO":999,"REV_AT_EPOCH":637,"BSTAR":0.001870992,"MEAN_MOTION_DOT":0.0028894,"MEAN_MOTION_DDOT":0},{"OBJECT_NAME":"STARLINK-36548","OBJECT_ID":"2026-020A","EPOCH":"2026-03-03T08:17:45.723840","MEAN_MOTION":15.76542096,"ECCENTRICITY":0.00022146,"INCLINATION":42.9998,"RA_OF_ASC_NODE":180.8402,"ARG_OF_PERICENTER":244.4859,"MEAN_ANOMALY":115.5782,"EPHEMERIS_TYPE":0,"CLASSIFICATION_TYPE":"U","NORAD_CAT_ID":67617,"ELEMENT_SET_NO":999,"REV_AT_EPOCH":508,"BSTAR":0.0018485924,"MEAN_MOTION_DOT":0.00314411,"MEAN_MOTION_DDOT":0},{"OBJECT_NAME":"STARLINK-36601","OBJECT_ID":"2026-020B","EPOCH":"2026-03-03T16:22:07.766112","MEAN_MOTION":15.76475343,"ECCENTRICITY":0.0001441,"INCLINATION":42.9989,"RA_OF_ASC_NODE":178.1751,"ARG_OF_PERICENTER":274.1716,"MEAN_ANOMALY":85.8989,"EPHEMERIS_TYPE":0,"CLASSIFICATION_TYPE":"U","NORAD_CAT_ID":67618,"ELEMENT_SET_NO":999,"REV_AT_EPOCH":514,"BSTAR":0.0018695516,"MEAN_MOTION_DOT":0.00317147,"MEAN_MOTION_DDOT":0},{"OBJECT_NAME":"STARLINK-36119","OBJECT_ID":"2026-020C","EPOCH":"2026-03-03T17:22:01.960320","MEAN_MOTION":15.76470849,"ECCENTRICITY":0.00021239,"INCLINATION":42.9999,"RA_OF_ASC_NODE":178.5128,"ARG_OF_PERICENTER":246.4978,"MEAN_ANOMALY":113.5669,"EPHEMERIS_TYPE":0,"CLASSIFICATION_TYPE":"U","NORAD_CAT_ID":67619,"ELEMENT_SET_NO":999,"REV_AT_EPOCH":514,"BSTAR":0.0016121584,"MEAN_MOTION_DOT":0.00271889,"MEAN_MOTION_DDOT":0},{"OBJECT_NAME":"STARLINK-36607","OBJECT_ID":"2026-020D","EPOCH":"2026-03-03T16:37:54.151968","MEAN_MOTION":15.76469515,"ECCENTRICITY":0.0001322,"INCLINATION":42.9997,"RA_OF_ASC_NODE":178.2638,"ARG_OF_PERICENTER":290.0875,"MEAN_ANOMALY":69.9852,"EPHEMERIS_TYPE":0,"CLASSIFICATION_TYPE":"U","NORAD_CAT_ID":67620,"ELEMENT_SET_NO":999,"REV_AT_EPOCH":514,"BSTAR":0.0024944048,"MEAN_MOTION_DOT":0.00428908,"MEAN_MOTION_DDOT":0},{"OBJECT_NAME":"STARLINK-36615","OBJECT_ID":"2026-020E","EPOCH":"2026-03-03T16:09:31.554432","MEAN_MOTION":15.76447466,"ECCENTRICITY":0.00014498,"INCLINATION":43.0001,"RA_OF_ASC_NODE":178.1036,"ARG_OF_PERICENTER":289.5019,"MEAN_ANOMALY":70.5694,"EPHEMERIS_TYPE":0,"CLASSIFICATION_TYPE":"U","NORAD_CAT_ID":67621,"ELEMENT_SET_NO":999,"REV_AT_EPOCH":514,"BSTAR":0.0021678931,"MEAN_MOTION_DOT":0.003697,"MEAN_MOTION_DDOT":0},{"OBJECT_NAME":"STARLINK-36614","OBJECT_ID":"2026-020F","EPOCH":"2026-03-03T17:15:43.982784","MEAN_MOTION":15.7645465,"ECCENTRICITY":0.00010058,"INCLINATION":42.9991,"RA_OF_ASC_NODE":178.4754,"ARG_OF_PERICENTER":251.6704,"MEAN_ANOMALY":108.4056,"EPHEMERIS_TYPE":0,"CLASSIFICATION_TYPE":"U","NORAD_CAT_ID":67622,"ELEMENT_SET_NO":999,"REV_AT_EPOCH":514,"BSTAR":0.0018770125,"MEAN_MOTION_DOT":0.00318167,"MEAN_MOTION_DDOT":0},{"OBJECT_NAME":"STARLINK-36600","OBJECT_ID":"2026-020G","EPOCH":"2026-03-03T17:18:53.010432","MEAN_MOTION":15.76488118,"ECCENTRICITY":0.00021996,"INCLINATION":43.0015,"RA_OF_ASC_NODE":178.4945,"ARG_OF_PERICENTER":290.2053,"MEAN_ANOMALY":69.858,"EPHEMERIS_TYPE":0,"CLASSIFICATION_TYPE":"U","NORAD_CAT_ID":67623,"ELEMENT_SET_NO":999,"REV_AT_EPOCH":514,"BSTAR":0.0020836814,"MEAN_MOTION_DOT":0.00355345,"MEAN_MOTION_DDOT":0}]
