STARLINK-36281          
1 67605U 26018S   26062.71461015  .00278302  00000+0  18050-2 0  9999
2 67605  97.2849 128.3280 0001048  88.9453 271.1933 15.75210317  6373
STARLINK-35843          
1 67606U 26018T   26062.94647555  .00420604  00000+0  26653-2 0  9992
2 67606  97.2836 128.4698 0001209 112.5168 247.6226 15.75352934  6409
STARLINK-36351          
1 67607U 26018U   26062.74213676  .00373414  00000+0  23905-2 0  9997
2 67607  97.2832 128.2897 0001346  65.0477 295.0928 15.75248340  6379
STARLINK-36411          
1 67608U 26018V   26062.71814148  .00295974  00000+0  19152-2 0  9999
2 67608  97.2839 128.3233 0001041  82.9048 277.2335 15.75214181  6376
STARLINK-36312          
1 67609U 26018W   26062.74002080  .00220951  00000+0  14418-2 0  9990
2 67609  97.2843 128.2937 0001344  79.3728 280.7688 15.75228090  6377
STARLINK-36387          
1 67610U 26018X   26062.75002315 -.00028362  00000+0 -18992-3 0  9990
2 67610  97.2844 128.3910 0001373  94.4509 166.3462 15.75188961  6077
STARLINK-36636          
1 67611U 26018Y   26062.65992968  .00410605  00000+0  26099-2 0  9991
2 67611  97.2860 128.2454 0001938  35.1391 325.0001 15.75311047  6364
STARLINK-36407          
1 67612U 26018Z   26062.73366607  .00299017  00000+0  19337-2 0  9995
2 67612  97.2839 128.3019 0001094  98.6538 261.4851 15.75220127  6420
STARLINK-36597          
1 67613U 26018AA  26062.71038098  .00288940  00000+0  18710-2 0  9991
2 67613  97.2822 128.3341 0002031  60.1417 300.0050 15.75217651  6376
STARLINK-36548          
1 67617U 26020A   26062.34566810  .00314411  00000+0  18486-2 0  9998
2 67617  42.9998 180.8402 0002214 244.4859 115.5782 15.76542096  5085
STARLINK-36601          
1 67618U 26020B   26062.68203433  .00317147  00000+0  18696-2 0  9997
2 67618  42.9989 178.1751 0001441 274.1716  85.8989 15.76475343  5141
STARLINK-36119          
1 67619U 26020C   26062.72363380  .00271889  00000+0  16122-2 0  9995
2 67619  42.9999 178.5128 0002123 246.4978 113.5669 15.76470849  5145
STARLINK-36607          
1 67620U 26020D   26062.69298787  .00428908  00000+0  24944-2 0  9998
2 67620  42.9997 178.2638 0001322 290.0875  69.9852 15.76469515  5145
STARLINK-36615          
1 67621U 26020E   26062.67328188  .00369700  00000+0  21679-2 0  9992
2 67621  43.0001 178.1036 0001449 289.5019  70.5694 15.76447466  5141
STARLINK-36614          
1 67622U 26020F   26062.71925906  .00318167  00000+0  18770-2 0  9998
2 67622  42.9991 178.4754 0001005 251.6704 108.4056 15.76454650  5143
STARLINK-36600          
1 67623U 26020G   26062.72144688  .00355345  00000+0  20837-2 0  9996
2 67623  43.0015 178.4945 0002199 290.2053  69.8580 15.76488118  5144
